[
  {
    "OBJECT_NAME": "STARLINK-34277",
    "OBJECT_ID": "25112L",
    "EPOCH": "2025-11-11T02:38:20.403168",
    "MEAN_MOTION": 15.05659344,
    "ECCENTRICITY": 5.47e-05,
    "INCLINATION": 97.604,
    "RA_OF_ASC_NODE": 4.6057,
    "ARG_OF_PERICENTER": 142.0077,
    "MEAN_ANOMALY": 218.1188,
    "EPHEMERIS_TYPE": 0,
    "CLASSIFICATION_TYPE": "U",
    "NORAD_CAT_ID": 64156,
    "ELEMENT_SET_NO": 999,
    "REV_AT_EPOCH": 2546,
    "BSTAR": 0.00044252,
    "MEAN_MOTION_DOT": 6.332e-05,
    "MEAN_MOTION_DDOT": 0.0,
    "TLE_LINE1": "1 64156U 25112L   25315.10995837  .00006332  00000+0  44252-3 0  9994",
    "TLE_LINE2": "2 64156  97.6040   4.6057 0000547 142.0077 218.1188 15.05659344 25467",
    "COMMENT": "Grouped by shell and plane from TLE"
  },
  {
    "OBJECT_NAME": "STARLINK-34343",
    "OBJECT_ID": "25112M",
    "EPOCH": "2025-11-11T02:14:25.125504",
    "MEAN_MOTION": 15.05664637,
    "ECCENTRICITY": 4.04e-05,
    "INCLINATION": 97.6056,
    "RA_OF_ASC_NODE": 4.628,
    "ARG_OF_PERICENTER": 94.6509,
    "MEAN_ANOMALY": 265.4764,
    "EPHEMERIS_TYPE": 0,
    "CLASSIFICATION_TYPE": "U",
    "NORAD_CAT_ID": 64157,
    "ELEMENT_SET_NO": 999,
    "REV_AT_EPOCH": 2546,
    "BSTAR": 0.0008477000000000001,
    "MEAN_MOTION_DOT": 0.00012196,
    "MEAN_MOTION_DDOT": 0.0,
    "TLE_LINE1": "1 64157U 25112M   25315.09334636  .00012196  00000+0  84770-3 0  9991",
    "TLE_LINE2": "2 64157  97.6056   4.6280 0000404  94.6509 265.4764 15.05664637 25463",
    "COMMENT": "Grouped by shell and plane from TLE"
  },
  {
    "OBJECT_NAME": "STARLINK-34166",
    "OBJECT_ID": "25112N",
    "EPOCH": "2025-11-11T03:02:15.613440",
    "MEAN_MOTION": 15.05656638,
    "ECCENTRICITY": 9.74e-05,
    "INCLINATION": 97.6047,
    "RA_OF_ASC_NODE": 4.5837,
    "ARG_OF_PERICENTER": 100.5598,
    "MEAN_ANOMALY": 259.5738,
    "EPHEMERIS_TYPE": 0,
    "CLASSIFICATION_TYPE": "U",
    "NORAD_CAT_ID": 64158,
    "ELEMENT_SET_NO": 999,
    "REV_AT_EPOCH": 2546,
    "BSTAR": 0.00035468,
    "MEAN_MOTION_DOT": 5.061e-05,
    "MEAN_MOTION_DDOT": 0.0,
    "TLE_LINE1": "1 64158U 25112N   25315.12656960  .00005061  00000+0  35468-3 0  9996",
    "TLE_LINE2": "2 64158  97.6047   4.5837 0000974 100.5598 259.5738 15.05656638 25465",
    "COMMENT": "Grouped by shell and plane from TLE"
  },
  {
    "OBJECT_NAME": "STARLINK-34344",
    "OBJECT_ID": "25112P",
    "EPOCH": "2025-11-11T02:50:17.091168",
    "MEAN_MOTION": 15.05646721,
    "ECCENTRICITY": 0.000275,
    "INCLINATION": 97.602,
    "RA_OF_ASC_NODE": 4.5944,
    "ARG_OF_PERICENTER": 124.3352,
    "MEAN_ANOMALY": 235.8135,
    "EPHEMERIS_TYPE": 0,
    "CLASSIFICATION_TYPE": "U",
    "NORAD_CAT_ID": 64159,
    "ELEMENT_SET_NO": 999,
    "REV_AT_EPOCH": 2546,
    "BSTAR": 0.0,
    "MEAN_MOTION_DOT": -3.146e-05,
    "MEAN_MOTION_DDOT": 0.0,
    "TLE_LINE1": "1 64159U 25112P   25315.11825337 -.00003146  00000+0 -21393-3 0  9998",
    "TLE_LINE2": "2 64159  97.6020   4.5944 0002750 124.3352 235.8135 15.05646721 25462",
    "COMMENT": "Grouped by shell and plane from TLE"
  },
  {
    "OBJECT_NAME": "STARLINK-34339",
    "OBJECT_ID": "25112Q",
    "EPOCH": "2025-11-11T02:26:22.711200",
    "MEAN_MOTION": 15.05666145,
    "ECCENTRICITY": 6.82e-05,
    "INCLINATION": 97.605,
    "RA_OF_ASC_NODE": 4.6171,
    "ARG_OF_PERICENTER": 127.0424,
    "MEAN_ANOMALY": 233.0865,
    "EPHEMERIS_TYPE": 0,
    "CLASSIFICATION_TYPE": "U",
    "NORAD_CAT_ID": 64160,
    "ELEMENT_SET_NO": 999,
    "REV_AT_EPOCH": 2546,
    "BSTAR": 0.00091094,
    "MEAN_MOTION_DOT": 0.00013113,
    "MEAN_MOTION_DDOT": 0.0,
    "TLE_LINE1": "1 64160U 25112Q   25315.10165175  .00013113  00000+0  91094-3 0  9994",
    "TLE_LINE2": "2 64160  97.6050   4.6171 0000682 127.0424 233.0865 15.05666145 25464",
    "COMMENT": "Grouped by shell and plane from TLE"
  },
  {
    "OBJECT_NAME": "STARLINK-34341",
    "OBJECT_ID": "25112R",
    "EPOCH": "2025-11-11T03:38:08.472480",
    "MEAN_MOTION": 15.05700954,
    "ECCENTRICITY": 4.29e-05,
    "INCLINATION": 97.6054,
    "RA_OF_ASC_NODE": 4.7065,
    "ARG_OF_PERICENTER": 199.2841,
    "MEAN_ANOMALY": 160.8369,
    "EPHEMERIS_TYPE": 0,
    "CLASSIFICATION_TYPE": "U",
    "NORAD_CAT_ID": 64161,
    "ELEMENT_SET_NO": 999,
    "REV_AT_EPOCH": 2547,
    "BSTAR": 0.0018273,
    "MEAN_MOTION_DOT": 0.00026439,
    "MEAN_MOTION_DDOT": 0.0,
    "TLE_LINE1": "1 64161U 25112R   25315.15148695  .00026439  00000+0  18273-2 0  9990",
    "TLE_LINE2": "2 64161  97.6054   4.7065 0000429 199.2841 160.8369 15.05700954 25479",
    "COMMENT": "Grouped by shell and plane from TLE"
  },
  {
    "OBJECT_NAME": "STARLINK-34317",
    "OBJECT_ID": "25112S",
    "EPOCH": "2025-11-11T03:14:14.474400",
    "MEAN_MOTION": 15.05658353,
    "ECCENTRICITY": 8.51e-05,
    "INCLINATION": 97.6047,
    "RA_OF_ASC_NODE": 4.7274,
    "ARG_OF_PERICENTER": 106.7612,
    "MEAN_ANOMALY": 253.3709,
    "EPHEMERIS_TYPE": 0,
    "CLASSIFICATION_TYPE": "U",
    "NORAD_CAT_ID": 64162,
    "ELEMENT_SET_NO": 999,
    "REV_AT_EPOCH": 2547,
    "BSTAR": 0.00039818,
    "MEAN_MOTION_DOT": 5.69e-05,
    "MEAN_MOTION_DDOT": 0.0,
    "TLE_LINE1": "1 64162U 25112S   25315.13488975  .00005690  00000+0  39818-3 0  9992",
    "TLE_LINE2": "2 64162  97.6047   4.7274 0000851 106.7612 253.3709 15.05658353 25473",
    "COMMENT": "Grouped by shell and plane from TLE"
  },
  {
    "OBJECT_NAME": "STARLINK-34340",
    "OBJECT_ID": "25112T",
    "EPOCH": "2025-11-11T02:42:19.703520",
    "MEAN_MOTION": 15.05658649,
    "ECCENTRICITY": 4.83e-05,
    "INCLINATION": 97.6033,
    "RA_OF_ASC_NODE": 4.6017,
    "ARG_OF_PERICENTER": 124.1996,
    "MEAN_ANOMALY": 235.9276,
    "EPHEMERIS_TYPE": 0,
    "CLASSIFICATION_TYPE": "U",
    "NORAD_CAT_ID": 64163,
    "ELEMENT_SET_NO": 999,
    "REV_AT_EPOCH": 2546,
    "BSTAR": 0.00043649,
    "MEAN_MOTION_DOT": 6.244e-05,
    "MEAN_MOTION_DDOT": 0.0,
    "TLE_LINE1": "1 64163U 25112T   25315.11272805  .00006244  00000+0  43649-3 0  9997",
    "TLE_LINE2": "2 64163  97.6033   4.6017 0000483 124.1996 235.9276 15.05658649 25465",
    "COMMENT": "Grouped by shell and plane from TLE"
  },
  {
    "OBJECT_NAME": "STARLINK-34263",
    "OBJECT_ID": "25112U",
    "EPOCH": "2025-11-11T02:30:22.134240",
    "MEAN_MOTION": 15.05662003,
    "ECCENTRICITY": 0.0001207,
    "INCLINATION": 97.6039,
    "RA_OF_ASC_NODE": 4.6121,
    "ARG_OF_PERICENTER": 88.5142,
    "MEAN_ANOMALY": 271.6223,
    "EPHEMERIS_TYPE": 0,
    "CLASSIFICATION_TYPE": "U",
    "NORAD_CAT_ID": 64164,
    "ELEMENT_SET_NO": 999,
    "REV_AT_EPOCH": 2546,
    "BSTAR": 0.00054753,
    "MEAN_MOTION_DOT": 7.851e-05,
    "MEAN_MOTION_DDOT": 0.0,
    "TLE_LINE1": "1 64164U 25112U   25315.10442285  .00007851  00000+0  54753-3 0  9991",
    "TLE_LINE2": "2 64164  97.6039   4.6121 0001207  88.5142 271.6223 15.05662003 25467",
    "COMMENT": "Grouped by shell and plane from TLE"
  },
  {
    "OBJECT_NAME": "STARLINK-33793",
    "OBJECT_ID": "25112V",
    "EPOCH": "2025-11-11T03:54:06.312384",
    "MEAN_MOTION": 15.05662799,
    "ECCENTRICITY": 4.55e-05,
    "INCLINATION": 97.6047,
    "RA_OF_ASC_NODE": 4.6891,
    "ARG_OF_PERICENTER": 112.4019,
    "MEAN_ANOMALY": 247.7256,
    "EPHEMERIS_TYPE": 0,
    "CLASSIFICATION_TYPE": "U",
    "NORAD_CAT_ID": 64165,
    "ELEMENT_SET_NO": 999,
    "REV_AT_EPOCH": 2547,
    "BSTAR": 0.0007143000000000001,
    "MEAN_MOTION_DOT": 0.00010264,
    "MEAN_MOTION_DDOT": 0.0,
    "TLE_LINE1": "1 64165U 25112V   25315.16257306  .00010264  00000+0  71430-3 0  9999",
    "TLE_LINE2": "2 64165  97.6047   4.6891 0000455 112.4019 247.7256 15.05662799 25478",
    "COMMENT": "Grouped by shell and plane from TLE"
  },
  {
    "OBJECT_NAME": "STARLINK-34313",
    "OBJECT_ID": "25112W",
    "EPOCH": "2025-11-11T03:42:08.688672",
    "MEAN_MOTION": 15.05664505,
    "ECCENTRICITY": 6.57e-05,
    "INCLINATION": 97.6049,
    "RA_OF_ASC_NODE": 4.7021,
    "ARG_OF_PERICENTER": 96.7008,
    "MEAN_ANOMALY": 263.4293,
    "EPHEMERIS_TYPE": 0,
    "CLASSIFICATION_TYPE": "U",
    "NORAD_CAT_ID": 64166,
    "ELEMENT_SET_NO": 999,
    "REV_AT_EPOCH": 2547,
    "BSTAR": 0.0007121100000000001,
    "MEAN_MOTION_DOT": 0.00010233,
    "MEAN_MOTION_DDOT": 0.0,
    "TLE_LINE1": "1 64166U 25112W   25315.15426723  .00010233  00000+0  71211-3 0  9993",
    "TLE_LINE2": "2 64166  97.6049   4.7021 0000657  96.7008 263.4293 15.05664505 25476",
    "COMMENT": "Grouped by shell and plane from TLE"
  },
  {
    "OBJECT_NAME": "STARLINK-34309",
    "OBJECT_ID": "25112X",
    "EPOCH": "2025-11-11T03:30:11.329344",
    "MEAN_MOTION": 15.05662204,
    "ECCENTRICITY": 0.0001275,
    "INCLINATION": 97.6044,
    "RA_OF_ASC_NODE": 4.7146,
    "ARG_OF_PERICENTER": 93.4106,
    "MEAN_ANOMALY": 266.7266,
    "EPHEMERIS_TYPE": 0,
    "CLASSIFICATION_TYPE": "U",
    "NORAD_CAT_ID": 64167,
    "ELEMENT_SET_NO": 999,
    "REV_AT_EPOCH": 2547,
    "BSTAR": 0.0006131299999999999,
    "MEAN_MOTION_DOT": 8.8e-05,
    "MEAN_MOTION_DDOT": 0.0,
    "TLE_LINE1": "1 64167U 25112X   25315.14596446  .00008800  00000+0  61313-3 0  9992",
    "TLE_LINE2": "2 64167  97.6044   4.7146 0001275  93.4106 266.7266 15.05662204 25470",
    "COMMENT": "Grouped by shell and plane from TLE"
  },
  {
    "OBJECT_NAME": "STARLINK-34303",
    "OBJECT_ID": "25112Y",
    "EPOCH": "2025-11-11T03:18:13.716000",
    "MEAN_MOTION": 15.05660375,
    "ECCENTRICITY": 0.0001165,
    "INCLINATION": 97.6047,
    "RA_OF_ASC_NODE": 4.7268,
    "ARG_OF_PERICENTER": 97.4574,
    "MEAN_ANOMALY": 262.6785,
    "EPHEMERIS_TYPE": 0,
    "CLASSIFICATION_TYPE": "U",
    "NORAD_CAT_ID": 64168,
    "ELEMENT_SET_NO": 999,
    "REV_AT_EPOCH": 2547,
    "BSTAR": 0.00045684,
    "MEAN_MOTION_DOT": 6.539e-05,
    "MEAN_MOTION_DDOT": 0.0,
    "TLE_LINE1": "1 64168U 25112Y   25315.13765875  .00006539  00000+0  45684-3 0  9996",
    "TLE_LINE2": "2 64168  97.6047   4.7268 0001165  97.4574 262.6785 15.05660375 25478",
    "COMMENT": "Grouped by shell and plane from TLE"
  }
]